SL-14 R/B               
1 20262U 89080C   25319.78115594  .00000564  00000+0  16081-3 0  9990
2 20262  82.5935 246.3203 1231190  85.1782 288.8444 12.50384020645912
DELTA 1 R/B             
1 20323U 89089B   25320.49607104  .00000743  00000+0  19243-3 0  9992
2 20323  97.0775 180.8902 0070558 119.6054 241.2198 14.50541883879321
ARIANE 40 R/B           
1 20443U 90005H   25319.63606821  .00000750  00000+0  25265-3 0  9993
2 20443  98.3282  18.5752 0010157 181.4207 178.6954 14.39769193876397
DELTA 2 R/B(1)          
1 20453U 90008B   25319.65597573  .00039691  00000+0  67857-3 0  9991
2 20453  35.6069 195.0866 0117463 291.4392  67.3846 15.42777805908447
COSMOS 2058             
1 20465U 90010A   25319.79262125  .00004841  00000+0  29464-3 0  9995
2 20465  82.4647 159.5415 0010776  14.5343 345.6194 15.10166147925045
SL-14 R/B               
1 20466U 90010B   25319.56232613  .00000893  00000+0  10567-3 0  9997
2 20466  82.5046  14.5695 0018786 319.3819  40.5993 14.83436326911561
SL-14 R/B               
1 20511U 90018B   25320.48318663  .00000811  00000+0  99051-4 0  9995
2 20511  82.5203 328.9092 0017919 103.5905 256.7306 14.82010188905819
HST                     
1 20580U 90037B   25319.68308380  .00009217  00000+0  32437-3 0  9990
2 20580  28.4677  96.5739 0001376 302.9143  57.1320 15.27534136755854
SL-16 R/B               
1 20625U 90046B   25319.59990794 -.00000105  00000+0 -29495-4 0  9996
2 20625  70.9964 177.5177 0012319 123.0124 237.2184 14.14990292832254
COSMOS 2084             
1 20663U 90055A   25319.52377287  .00004024  00000+0  29397-3 0  9999
2 20663  62.7924   4.7116 0036097 171.4731 188.6991 15.04791798919133
SL-6 R/B(2)             
1 20666U 90055D   25319.28946869  .00003713  00000+0  28954-3 0  9995
2 20666  62.7835 282.6724 0010861 285.6215  74.3685 15.02888111920996
SL-8 R/B                
1 20775U 90078B   25319.51202153  .00020434  00000+0  63060-3 0  9994
2 20775  82.9073 353.6490 0380292  37.0804 325.6043 14.84415459792330
SL-8 R/B                
1 21088U 91006B   25319.79596948  .00000170  00000+0  15509-3 0  9992
2 21088  82.9418 254.7538 0022556 358.0040  30.7705 13.77485125748393
OKEAN-3                 
1 21397U 91039A   25319.80333949  .00004708  00000+0  33943-3 0  9996
2 21397  82.5158  87.1114 0014315   4.1118 356.0223 15.03863007847917
COSMOS 2151             
1 21422U 91042A   25319.79959046  .00003535  00000+0  28499-3 0  9996
2 21422  82.4985 193.4597 0014178  83.8494 276.4345 14.99554048846125
SL-14 R/B               
1 21423U 91042B   25319.49955292  .00000853  00000+0  10529-3 0  9998
2 21423  82.4918 327.2713 0015524 255.0666 104.8829 14.81703261836167
ERS-1                   
1 21574U 91050A   25319.48672488  .00000695  00000+0  23722-3 0  9999
2 21574  98.7922 329.8581 0032001 179.2228 180.9014 14.39334839799309
ARIANE 40 R/B           
1 21610U 91050F   25319.60117492  .00000828  00000+0  26095-3 0  9997
2 21610  98.2207  11.0064 0004176  69.9809 290.1831 14.42780935802547
INTERCOSMOS 25          
1 21819U 91086A   25319.55494071  .00002452  00000+0  48057-3 0  9999
2 21819  82.6084  19.0083 1488198   3.0051 357.8825 12.11609824482860
SL-8 R/B                
1 21876U 92008B   25319.86914242  .00000169  00000+0  15805-3 0  9996
2 21876  82.9281 352.4342 0036152  92.7179  80.6889 13.75950730693761
SL-8 R/B                
1 21938U 92020B   25319.78312682  .00000110  00000+0  99011-4 0  9998
2 21938  82.9312 238.3326 0027634 255.5989 173.5559 13.75522298685471
USA 81                  
1 21949U 92023A   25319.64889052  .00000370  00000+0  12968-3 0  9991
2 21949  85.0106 197.1970 0002562  73.5277 286.6197 14.32313330 78464
COSMOS 2219             
1 22219U 92076A   25319.84370466  .00000074  00000+0  63700-4 0  9998
2 22219  71.0612 256.0528 0017887   5.9637 354.1695 14.14067479702289
SL-16 R/B               
1 22220U 92076B   25319.76573685 -.00000098  00000+0 -24693-4 0  9995
2 22220  71.0005  68.3492 0015282 269.2266 243.9192 14.16835870705696
COSMOS 2221             
1 22236U 92080A   25319.65612807  .00003201  00000+0  28553-3 0  9990
2 22236  82.5072  28.2420 0013852 210.3562 149.6859 14.95616475763744
SL-16 R/B               
1 22285U 92093B   25319.81836721  .00000268  00000+0  16192-3 0  9995
2 22285  71.0217 243.3062 0002560 147.8508 212.2771 14.15426679697048
COSMOS 2228             
1 22286U 92094A   25319.81330669  .00003794  00000+0  33040-3 0  9995
2 22286  82.5187 346.2977 0017134 330.0278  29.9962 14.96557097759023
SL-16 R/B               
1 22566U 93016B   25319.77678076  .00000418  00000+0  23908-3 0  9995
2 22566  71.0063  94.4301 0008957 146.9860 213.1824 14.15282888686057
COSMOS 2242             
1 22626U 93024A   25319.61399142  .00002782  00000+0  24564-3 0  9993
2 22626  82.5216  15.7667 0015526 333.7601  26.2832 14.95952284763332
SL-16 R/B               
1 22803U 93059B   25319.55798546  .00000286  00000+0  16504-3 0  9994
2 22803  70.9901 251.8024 0016350  16.5766 343.5889 14.17207639663365
ARIANE 40 R/B           
1 22830U 93061H   25319.59247579  .00000562  00000+0  22218-3 0  9992
2 22830  98.5111  25.6123 0009649 260.6375  99.3718 14.32776982677767
COSMOS 2278             
1 23087U 94023A   25319.73106390  .00000514  00000+0  29352-3 0  9990
2 23087  71.0547  53.5142 0009879 214.2554 145.7933 14.14341116628691
SL-16 R/B               
1 23088U 94023B   25319.68821131 -.00000152  00000+0 -53738-4 0  9998
2 23088  70.9992 310.2963 0001281 154.1505 205.9682 14.14992016629967
SL-16 R/B               
1 23343U 94074B   25319.56729148  .00001079  00000+0  15180-3 0  9995
2 23343  97.7240 349.9476 0005499 224.2418 287.6127 14.79245245670377
SL-16 R/B               
1 23405U 94077B   25319.71428911  .00000184  00000+0  11841-3 0  9994
2 23405  70.9828 232.2658 0004163 306.4050  53.6689 14.15546874600109
ARIANE 40+ R/B          
1 23561U 95021B   25319.64975814  .00000730  00000+0  24729-3 0  9994
2 23561  98.4684  27.5617 0007811 120.1471  35.2120 14.39665621602834
SL-16 R/B               
1 23705U 95058B   25319.71560878 -.00000131  00000+0 -42677-4 0  9992
2 23705  71.0228  59.5392 0014974 290.0045  69.9465 14.15476626551728
SL-16 R/B               
1 24298U 96051B   25319.71782063  .00000014  00000+0  34120-4 0  9998
2 24298  70.7607  56.4781 0018310 295.2919  64.6303 14.12393493505556
ORBVIEW 2 (SEASTAR)     
1 24883U 97037A   25319.72974956  .00000755  00000+0  27929-3 0  9998
2 24883  98.8449 116.1269 0002902  53.8824 306.2629 14.35388323492124
SL-16 R/B               
1 25400U 98043G   25319.78493306  .00000213  00000+0  10799-3 0  9999
2 25400  98.8079 267.4583 0009684 351.4061   8.6951 14.26016094422758
SL-16 R/B               
1 25407U 98045B   25319.71187872 -.00000139  00000+0 -46202-4 0  9997
2 25407  71.0121  61.2633 0008535 214.8336 145.2230 14.16168897410969
ISS (ZARYA)             
1 25544U 98067A   25319.38552854  .00013221  00000+0  24188-3 0  9994
2 25544  51.6327 277.8788 0004161  73.2410 286.9034 15.49683527538617
CZ-4B R/B               
1 25732U 99025C   25319.60861829  .00000197  00000+0  11623-3 0  9996
2 25732  98.6811   1.4901 0036285 314.1819 214.4654 14.18233931371990
OKEAN-O                 
1 25860U 99039A   25319.61322595  .00001530  00000+0  20867-3 0  9998
2 25860  97.9645  15.5451 0001362  67.1493 292.9863 14.80096071417519
SL-16 R/B               
1 25861U 99039B   25319.63446441  .00001307  00000+0  17332-3 0  9993
2 25861  98.0168  13.7789 0013500 267.3962  92.5705 14.81530657419973
DELTA 2 R/B             
1 25876U 99041E   25319.59133208  .00001555  00000+0  28947-3 0  9990
2 25876  51.7631  36.8090 0504885  11.7694 349.4539 14.11306345346915
HELIOS 1B               
1 25977U 99064A   25319.68908436  .00002552  00000+0  29053-3 0  9997
2 25977  98.1757 213.5555 0002564  79.0842 281.0661 14.87126974668319
TERRA                   
1 25994U 99068A   25319.83034203  .00001099  00000+0  23354-3 0  9992
2 25994  97.9789  12.4962 0002580 154.1746 335.8033 14.60908557378454
SL-16 R/B               
1 26070U 00006B   25319.48580041 -.00000138  00000+0 -45941-4 0  9991
2 26070  71.0029 337.9643 0017036 346.8402  13.2274 14.15802148332398
TITAN 4B R/B            
1 26474U 00047B   25319.82573288  .00005570  00000+0  35752-3 0  9998
2 26474  67.9912   0.4285 0041305 176.0276 184.1209 15.08512781375738
ENVISAT                 
1 27386U 02009A   25319.84990935  .00000325  00000+0  11920-3 0  9999
2 27386  98.3555 271.2781 0001282  81.9513 302.3665 14.38985167242804
IDEFIX & ARIANE 42P R/B 
1 27422U 02021B   25319.80221941  .00000675  00000+0  27328-3 0  9991
2 27422  98.5743 254.8485 0012046 157.6849 202.4861 14.30922422227737
AQUA                    
1 27424U 02022A   25319.84916953  .00002302  00000+0  47171-3 0  9999
2 27424  98.3997 280.2988 0000719  56.6236 325.2799 14.61718221252108
CZ-4B R/B               
1 27432U 02024C   25319.64276757  .00000148  00000+0  99191-4 0  9995
2 27432  98.9043   8.5036 0049880 348.0547 163.7141 14.14519932213115
MIDORI II (ADEOS-II)    
1 27597U 02056A   25319.83183388  .00000638  00000+0  26915-3 0  9997
2 27597  98.7592 272.6532 0001213  30.1343 329.9908 14.29179674194037
H-2A R/B                
1 27601U 02056E   25319.80661733  .00000599  00000+0  22452-3 0  9993
2 27601  98.3024 279.6421 0071009 140.1783 259.2683 14.33648069197798
CZ-4B R/B               
1 28059U 03049C   25319.70495877  .00000872  00000+0  21189-3 0  9997
2 28059  98.6770 305.2505 0047468 218.5557 141.2246 14.54873945170025
CZ-2C R/B               
1 28222U 04012C   25319.57066353  .00041658  00000+0  65850-3 0  9998
2 28222  97.7477   9.9951 0018947  13.4871 346.6884 15.53158596186502
SL-16 R/B               
1 28353U 04021B   25319.82113492  .00000397  00000+0  23155-3 0  9995
2 28353  70.9982 111.4522 0006460 227.6400 132.4176 14.14575147106731
